[{"OBJECT_NAME":"STARLINK-35447","OBJECT_ID":"2025-270B","EPOCH":"2026-03-09T22:27:45.076032","MEAN_MOTION":15.27584351,"ECCENTRICITY":0.00020001,"INCLINATION":43.0089,"RA_OF_ASC_NODE":54.7849,"ARG_OF_PERICENTER":257.2499,"MEAN_ANOMALY":102.8129,"EPHEMERIS_TYPE":0,"CLASSIFICATION_TYPE":"U","NORAD_CAT_ID":66589,"ELEMENT_SET_NO":999,"REV_AT_EPOCH":1785,"BSTAR":0.00083719631,"MEAN_MOTION_DOT":0.0002285,"MEAN_MOTION_DDOT":0},{"OBJECT_NAME":"CZ-2C R\/B","OBJECT_ID":"2024-007B","EPOCH":"2026-03-09T13:33:21.523680","MEAN_MOTION":15.39758847,"ECCENTRICITY":0.00678111,"INCLINATION":29.0105,"RA_OF_ASC_NODE":269.6864,"ARG_OF_PERICENTER":313.7067,"MEAN_ANOMALY":45.794,"EPHEMERIS_TYPE":0,"CLASSIFICATION_TYPE":"U","NORAD_CAT_ID":58754,"ELEMENT_SET_NO":999,"REV_AT_EPOCH":12080,"BSTAR":0.0004050997,"MEAN_MOTION_DOT":0.00018271,"MEAN_MOTION_DDOT":0}]
